NORAD_CAT_ID,OBJECT_NAME,OBJECT_TYPE,EPOCH,MEAN_MOTION,ECCENTRICITY,INCLINATION,RA_OF_ASC_NODE,ARG_OF_PERICENTER,MEAN_ANOMALY,BSTAR,MEAN_MOTION_DOT,MEAN_MOTION_DDOT,TLE_LINE0,TLE_LINE1,TLE_LINE2,SEMIMAJOR_AXIS,PERIOD,APOGEE,PERIGEE,DECAYED
53924.0,STARLINK-5001,PAYLOAD,2023-10-07 11:58:29,15.08850854,0.0001592,53.2167,318.311,103.1947,256.9223,0.0012498,0.00019664,0.0,0 STARLINK-5001,1 53924U 22119AQ  23280.49895719  .00019664  00000-0  12498-2 0  9997,2 53924  53.2167 318.3110 0001592 103.1947 256.9223 15.08850854 58419,6917.847,95.437,540.814,538.611,0.0
53924.0,STARLINK-5001,PAYLOAD,2023-10-07 15:09:16,15.08861639,0.0001539,53.2162,317.7161,97.5238,262.5929,0.0014581,0.00023008,0.0,0 STARLINK-5001,1 53924U 22119AQ  23280.63143524  .00023008  00000-0  14581-2 0  9995,2 53924  53.2162 317.7161 0001539  97.5238 262.5929 15.08861639 58018,6917.814,95.436,540.744,538.615,0.0
53924.0,STARLINK-5001,PAYLOAD,2023-10-08 02:16:58,15.08853789,0.0003622,53.2162,315.634,107.4906,252.6482,0.001088,0.00017078,0.0,0 STARLINK-5001,1 53924U 22119AQ  23281.09512119  .00017078  00000-0  10880-2 0  9994,2 53924  53.2162 315.6340 0003622 107.4906 252.6482 15.08853789 58080,6917.838,95.437,542.209,537.198,0.0
53924.0,STARLINK-5001,PAYLOAD,2023-10-08 08:38:31,15.0884478,0.0001527,53.2164,314.4461,83.9568,276.1598,0.0015191,0.00023974,0.0,0 STARLINK-5001,1 53924U 22119AQ  23281.36008236  .00023974  00000-0  15191-2 0  9996,2 53924  53.2164 314.4461 0001527  83.9568 276.1598 15.08844780 58122,6917.866,95.437,540.787,538.674,0.0
53924.0,STARLINK-5001,PAYLOAD,2023-10-08 11:49:17,15.08853137,0.0001573,53.2166,313.8514,81.1686,278.9484,0.0020019,0.00031728,0.0,0 STARLINK-5001,1 53924U 22119AQ  23281.49256171  .00031728  00000-0  20019-2 0  9994,2 53924  53.2166 313.8514 0001573  81.1686 278.9484 15.08853137 58566,6917.84,95.437,540.793,538.617,0.0
53924.0,STARLINK-5001,PAYLOAD,2023-10-08 19:46:13,15.08852394,0.0001922,53.2173,312.3647,84.6205,275.5007,0.0015484,0.00024449,0.0,0 STARLINK-5001,1 53924U 22119AQ  23281.82376391  .00024449  00000-0  15484-2 0  9990,2 53924  53.2173 312.3647 0001922  84.6205 275.5007 15.08852394 58612,6917.843,95.437,541.037,538.378,0.0
53924.0,STARLINK-5001,PAYLOAD,2023-10-09 08:29:17,15.0885349,0.0001869,53.217,309.9829,93.627,266.4936,0.00055258,8.52e-05,0.0,0 STARLINK-5001,1 53924U 22119AQ  23282.35367918  .00008520  00000-0  55258-3 0  9990,2 53924  53.2170 309.9829 0001869  93.6270 266.4936 15.08853490 58275,6917.839,95.437,540.997,538.411,0.0
53924.0,STARLINK-5001,PAYLOAD,2023-10-09 13:15:27,15.08859013,0.0001864,53.2171,309.0906,95.8685,264.2519,0.00064431,9.986e-05,0.0,0 STARLINK-5001,1 53924U 22119AQ  23282.55239643  .00009986  00000-0  64431-3 0  9995,2 53924  53.2171 309.0906 0001864  95.8685 264.2519 15.08859013 58722,6917.822,95.436,540.977,538.398,0.0
53924.0,STARLINK-5001,PAYLOAD,2023-10-10 08:20:04,15.08848994,0.0001754,53.2174,305.523,98.3261,261.793,0.00022853,3.352e-05,0.0,0 STARLINK-5001,1 53924U 22119AQ  23283.34727716  .00003352  00000-0  22853-3 0  9999,2 53924  53.2174 305.5230 0001754  98.3261 261.7930 15.08848994 58424,6917.853,95.437,540.931,538.505,0.0
53924.0,STARLINK-5001,PAYLOAD,2023-10-10 13:06:13,15.08856132,0.0001813,53.2176,304.63,99.8477,260.272,0.0003892,5.914e-05,0.0,0 STARLINK-5001,1 53924U 22119AQ  23283.54599432  .00005914  00000-0  38920-3 0  9991,2 53924  53.2176 304.6300 0001813  99.8477 260.2720 15.08856132 58878,6917.831,95.437,540.95,538.442,0.0
53924.0,STARLINK-5001,PAYLOAD,2023-10-11 01:49:19,15.08832218,0.0002375,53.2169,302.2517,91.2312,268.8952,-1.6738e-06,-3.15e-06,0.0,0 STARLINK-5001,1 53924U 22119AQ  23284.07592336 -.00000315  00000-0 -16738-5 0  9993,2 53924  53.2169 302.2517 0002375  91.2312 268.8952 15.08832218 58535,6917.904,95.438,541.412,538.126,0.0
53924.0,STARLINK-5001,PAYLOAD,2023-10-11 12:57:02,15.08838985,0.0001768,53.2174,300.1727,88.627,271.4925,0.001011,0.00015838,0.0,0 STARLINK-5001,1 53924U 22119AQ  23284.53960776  .00015838  00000-0  10110-2 0  9990,2 53924  53.2174 300.1727 0001768  88.6270 271.4925 15.08838985 59021,6917.883,95.438,540.972,538.525,0.0
53924.0,STARLINK-5001,PAYLOAD,2023-10-12 04:50:53,15.08846007,0.0001556,53.2168,297.199,97.3077,262.8092,0.0012741,0.00020051,0.0,0 STARLINK-5001,1 53924U 22119AQ  23285.20200985  .00020051  00000-0  12741-2 0  9999,2 53924  53.2168 297.1990 0001556  97.3077 262.8092 15.08846007 58705,6917.862,95.437,540.803,538.651,0.0
53924.0,STARLINK-5001,PAYLOAD,2023-10-12 08:01:39,15.08854047,0.0001606,53.2167,296.6051,88.0002,272.1174,0.0013904,0.00021918,0.0,0 STARLINK-5001,1 53924U 22119AQ  23285.33448853  .00021918  00000-0  13904-2 0  9996,2 53924  53.2167 296.6051 0001606  88.0002 272.1174 15.08854047 59144,6917.837,95.437,540.813,538.591,0.0
53924.0,STARLINK-5001,PAYLOAD,2023-10-13 04:41:40,15.0885577,0.0001151,53.2165,292.7387,66.9325,293.1788,0.0011584,0.00018204,0.0,0 STARLINK-5001,1 53924U 22119AQ  23286.19560844  .00018204  00000-0  11584-2 0  9992,2 53924  53.2165 292.7387 0001151  66.9325 293.1788 15.08855770 58854,6917.832,95.437,540.493,538.901,0.0
53924.0,STARLINK-5001,PAYLOAD,2023-10-13 09:27:49,15.08860288,0.0001644,53.2162,291.8471,95.725,264.393,0.00090798,0.000142,0.0,0 STARLINK-5001,1 53924U 22119AQ  23286.39432537  .00014200  00000-0  90798-3 0  9998,2 53924  53.2162 291.8471 0001644  95.7250 264.3930 15.08860288 59309,6917.818,95.436,540.821,538.546,0.0
53924.0,STARLINK-5001,PAYLOAD,2023-10-13 17:24:45,15.0885295,0.0001841,53.2168,290.3588,92.875,267.2453,0.00078884,0.00012293,0.0,0 STARLINK-5001,1 53924U 22119AQ  23286.72552493  .00012293  00000-0  78884-3 0  9991,2 53924  53.2168 290.3588 0001841  92.8750 267.2453 15.08852950 58937,6917.841,95.437,540.979,538.432,0.0
53924.0,STARLINK-5001,PAYLOAD,2023-10-14 04:32:27,15.08843079,0.0001591,53.217,288.2802,94.8851,265.2323,0.00018204,2.611e-05,0.0,0 STARLINK-5001,1 53924U 22119AQ  23287.18920576  .00002611  00000-0  18204-3 0  9996,2 53924  53.2170 288.2802 0001591  94.8851 265.2323 15.08843079 59006,6917.871,95.437,540.837,538.635,0.0
53924.0,STARLINK-5001,PAYLOAD,2023-10-14 07:43:13,15.08849417,0.000165,53.2158,287.6848,92.6233,267.4948,0.00033079,4.982e-05,0.0,0 STARLINK-5001,1 53924U 22119AQ  23287.32168478  .00004982  00000-0  33079-3 0  9997,2 53924  53.2158 287.6848 0001650  92.6233 267.4948 15.08849417 59448,6917.852,95.437,540.858,538.575,0.0
53924.0,STARLINK-5001,PAYLOAD,2023-10-14 17:15:32,15.08837554,0.0001639,53.2155,285.8992,85.2746,274.8433,2.1873e-05,6e-07,0.0,0 STARLINK-5001,1 53924U 22119AQ  23287.71912850  .00000060  00000-0  21873-4 0  9994,2 53924  53.2155 285.8992 0001639  85.2746 274.8433 15.08837554 59089,6917.888,95.438,540.887,538.619,0.0
53924.0,STARLINK-5001,PAYLOAD,2023-10-15 04:23:15,15.08824953,0.0001687,53.2158,283.8174,90.6387,269.4799,-0.00022491,-3.864e-05,0.0,0 STARLINK-5001,1 53924U 22119AQ  23288.18281770 -.00003864  00000-0 -22491-3 0  9999,2 53924  53.2158 283.8174 0001687  90.6387 269.4799 15.08824953 59158,6917.926,95.439,540.958,538.624,0.0
53924.0,STARLINK-5001,PAYLOAD,2023-10-15 09:09:24,15.08828451,0.0001537,53.2166,282.9257,94.9001,265.2166,-7.1869e-05,-1.431e-05,0.0,0 STARLINK-5001,1 53924U 22119AQ  23288.38153769 -.00001431  00000-0 -71869-4 0  9999,2 53924  53.2166 282.9257 0001537  94.9001 265.2166 15.08828451 59602,6917.916,95.438,540.844,538.717,0.0
53924.0,STARLINK-5001,PAYLOAD,2023-10-15 17:06:20,15.0883579,0.0001494,53.2167,281.4387,97.3009,262.8153,0.00015365,2.158e-05,0.0,0 STARLINK-5001,1 53924U 22119AQ  23288.71273775  .00002158  00000-0  15365-3 0  9999,2 53924  53.2167 281.4387 0001494  97.3009 262.8153 15.08835790 59230,6917.893,95.438,540.792,538.725,0.0
53924.0,STARLINK-5001,PAYLOAD,2023-10-16 04:14:02,15.08860459,0.0001396,53.2161,279.3578,115.877,244.2366,0.0010402,0.00016315,0.0,0 STARLINK-5001,1 53924U 22119AQ  23289.17641247  .00016315  00000-0  10402-2 0  9999,2 53924  53.2161 279.3578 0001396 115.8770 244.2366 15.08860459 59302,6917.818,95.436,540.649,538.717,0.0
53924.0,STARLINK-5001,PAYLOAD,2023-10-16 09:00:11,15.08881521,0.000147,53.2159,278.4624,101.4334,258.6823,0.0017212,0.00027242,0.0,0 STARLINK-5001,1 53924U 22119AQ  23289.37512879  .00027242  00000-0  17212-2 0  9996,2 53924  53.2159 278.4624 0001470 101.4334 258.6823 15.08881521 59334,6917.753,95.435,540.635,538.602,0.0
53924.0,STARLINK-5001,PAYLOAD,2023-10-17 08:50:58,15.08850305,0.0001396,53.2174,274.0028,78.912,281.2029,0.00031832,4.783e-05,0.0,0 STARLINK-5001,1 53924U 22119AQ  23290.36872960  .00004783  00000-0  31832-3 0  9997,2 53924  53.2174 274.0028 0001396  78.9120 281.2029 15.08850305 59481,6917.849,95.437,540.68,538.748,0.0
53924.0,STARLINK-5001,PAYLOAD,2023-10-17 13:37:07,15.08850321,0.0001466,53.2174,273.1099,81.5608,278.555,0.00052035,8.005e-05,0.0,0 STARLINK-5001,1 53924U 22119AQ  23290.56744978  .00008005  00000-0  52035-3 0  9995,2 53924  53.2174 273.1099 0001466  81.5608 278.5550 15.08850321 59934,6917.849,95.437,540.728,538.7,0.0
53924.0,STARLINK-5001,PAYLOAD,2023-10-18 02:20:12,15.08838114,0.0001241,53.2205,270.7308,89.9435,270.17,0.00010757,1.424e-05,0.0,0 STARLINK-5001,1 53924U 22119AQ  23291.09737222  .00001424  00000-0  10757-3 0  9991,2 53924  53.2205 270.7308 0001241  89.9435 270.1700 15.08838114 59599,6917.886,95.438,540.61,538.893,0.0
53924.0,STARLINK-5001,PAYLOAD,2023-10-18 05:30:58,15.08850156,0.0001364,53.2175,270.137,87.9238,272.191,0.00019058,2.747e-05,0.0,0 STARLINK-5001,1 53924U 22119AQ  23291.22984910  .00002747  00000-0  19058-3 0  9996,2 53924  53.2175 270.1370 0001364  87.9238 272.1910 15.08850156 59611,6917.849,95.437,540.658,538.771,0.0
53924.0,STARLINK-5001,PAYLOAD,2023-10-18 23:00:13,15.08843456,0.0001422,53.217,266.8678,83.2747,276.8407,0.00021881,3.196e-05,0.0,0 STARLINK-5001,1 53924U 22119AQ  23291.95849281  .00003196  00000-0  21881-3 0  9993,2 53924  53.2170 266.8678 0001422  83.2747 276.8407 15.08843456 60145,6917.87,95.437,540.719,538.751,0.0
